FENGYUN 1C DEB          
1 31058U 99025BFC 17336.33573482  .00000410  00000-0  10492-3 0  9991
2 31058  99.6048 167.1070 0139306 199.3285 160.2592 14.51623686568518
